CCSDS_OMM_VERS = 2.0
CREATION_DATE  = 
ORIGINATOR     = 

OBJECT_NAME    = COSMOS 2242
OBJECT_ID      = 1993-024A
CENTER_NAME    = EARTH
REF_FRAME      = TEME
TIME_SYSTEM    = UTC
MEAN_ELEMENT_THEORY = SGP/SGP4

EPOCH          = 2026-03-28T11:46:24.465216
MEAN_MOTION    = 14.96627425
ECCENTRICITY   = .0015072
INCLINATION    = 82.5161
RA_OF_ASC_NODE = 248.7279
ARG_OF_PERICENTER = 239.5622
MEAN_ANOMALY   = 120.4112

EPHEMERIS_TYPE = 0
CLASSIFICATION_TYPE = U
NORAD_CAT_ID   = 22626
ELEMENT_SET_NO = 999
REV_AT_EPOCH   = 78320
BSTAR          = .18755E-3
MEAN_MOTION_DOT = .2167E-4
MEAN_MOTION_DDOT = 0

CCSDS_OMM_VERS = 2.0
CREATION_DATE  = 
ORIGINATOR     = 

OBJECT_NAME    = SL-16 R/B
OBJECT_ID      = 1993-059B
CENTER_NAME    = EARTH
REF_FRAME      = TEME
TIME_SYSTEM    = UTC
MEAN_ELEMENT_THEORY = SGP/SGP4

EPOCH          = 2026-03-28T02:38:52.564704
MEAN_MOTION    = 14.17235097
ECCENTRICITY   = .00174502
INCLINATION    = 70.9920
RA_OF_ASC_NODE = 332.2838
ARG_OF_PERICENTER = 189.8461
MEAN_ANOMALY   = 170.2324

EPHEMERIS_TYPE = 0
CLASSIFICATION_TYPE = U
NORAD_CAT_ID   = 22803
ELEMENT_SET_NO = 999
REV_AT_EPOCH   = 68214
BSTAR          = -.64469252E-4
MEAN_MOTION_DOT = -.178E-5
MEAN_MOTION_DDOT = 0

CCSDS_OMM_VERS = 2.0
CREATION_DATE  = 
ORIGINATOR     = 

OBJECT_NAME    = ARIANE 40 R/B
OBJECT_ID      = 1993-061H
CENTER_NAME    = EARTH
REF_FRAME      = TEME
TIME_SYSTEM    = UTC
MEAN_ELEMENT_THEORY = SGP/SGP4

EPOCH          = 2026-03-28T09:54:51.363072
MEAN_MOTION    = 14.32870728
ECCENTRICITY   = .0009995
INCLINATION    = 98.4882
RA_OF_ASC_NODE = 155.9282
ARG_OF_PERICENTER = 223.7471
MEAN_ANOMALY   = 136.2922

EPHEMERIS_TYPE = 0
CLASSIFICATION_TYPE = U
NORAD_CAT_ID   = 22830
ELEMENT_SET_NO = 999
REV_AT_EPOCH   = 69678
BSTAR          = .94224E-4
MEAN_MOTION_DOT = .214E-5
MEAN_MOTION_DDOT = 0

CCSDS_OMM_VERS = 2.0
CREATION_DATE  = 
ORIGINATOR     = 

OBJECT_NAME    = COSMOS 2278
OBJECT_ID      = 1994-023A
CENTER_NAME    = EARTH
REF_FRAME      = TEME
TIME_SYSTEM    = UTC
MEAN_ELEMENT_THEORY = SGP/SGP4

EPOCH          = 2026-03-28T11:32:31.240896
MEAN_MOTION    = 14.14375559
ECCENTRICITY   = .0009144
INCLINATION    = 71.0517
RA_OF_ASC_NODE = 135.7860
ARG_OF_PERICENTER = 343.9869
MEAN_ANOMALY   = 16.0964

EPHEMERIS_TYPE = 0
CLASSIFICATION_TYPE = U
NORAD_CAT_ID   = 23087
ELEMENT_SET_NO = 999
REV_AT_EPOCH   = 64746
BSTAR          = -.9466E-4
MEAN_MOTION_DOT = -.228E-5
MEAN_MOTION_DDOT = 0

CCSDS_OMM_VERS = 2.0
CREATION_DATE  = 
ORIGINATOR     = 

OBJECT_NAME    = SL-16 R/B
OBJECT_ID      = 1994-023B
CENTER_NAME    = EARTH
REF_FRAME      = TEME
TIME_SYSTEM    = UTC
MEAN_ELEMENT_THEORY = SGP/SGP4

EPOCH          = 2026-03-28T05:40:06.752064
MEAN_MOTION    = 14.15014889
ECCENTRICITY   = .000546
INCLINATION    = 71.0016
RA_OF_ASC_NODE = 31.9354
ARG_OF_PERICENTER = 268.3333
MEAN_ANOMALY   = 91.7164

EPHEMERIS_TYPE = 0
CLASSIFICATION_TYPE = U
NORAD_CAT_ID   = 23088
ELEMENT_SET_NO = 999
REV_AT_EPOCH   = 64871
BSTAR          = .20445E-3
MEAN_MOTION_DOT = .348E-5
MEAN_MOTION_DDOT = 0

CCSDS_OMM_VERS = 2.0
CREATION_DATE  = 
ORIGINATOR     = 

OBJECT_NAME    = SL-16 R/B
OBJECT_ID      = 1994-074B
CENTER_NAME    = EARTH
REF_FRAME      = TEME
TIME_SYSTEM    = UTC
MEAN_ELEMENT_THEORY = SGP/SGP4

EPOCH          = 2026-03-28T13:07:51.339936
MEAN_MOTION    = 14.79428867
ECCENTRICITY   = .0007268
INCLINATION    = 97.7082
RA_OF_ASC_NODE = 117.5991
ARG_OF_PERICENTER = 149.1399
MEAN_ANOMALY   = 11.4350

EPHEMERIS_TYPE = 0
CLASSIFICATION_TYPE = U
NORAD_CAT_ID   = 23343
ELEMENT_SET_NO = 999
REV_AT_EPOCH   = 69003
BSTAR          = .72042E-4
MEAN_MOTION_DOT = .488E-5
MEAN_MOTION_DDOT = 0

CCSDS_OMM_VERS = 2.0
CREATION_DATE  = 
ORIGINATOR     = 

OBJECT_NAME    = SL-16 R/B
OBJECT_ID      = 1994-077B
CENTER_NAME    = EARTH
REF_FRAME      = TEME
TIME_SYSTEM    = UTC
MEAN_ELEMENT_THEORY = SGP/SGP4

EPOCH          = 2026-03-28T08:26:42.410400
MEAN_MOTION    = 14.15569236
ECCENTRICITY   = .0001969
INCLINATION    = 70.9835
RA_OF_ASC_NODE = 313.2294
ARG_OF_PERICENTER = 197.2989
MEAN_ANOMALY   = 162.8067

EPHEMERIS_TYPE = 0
CLASSIFICATION_TYPE = U
NORAD_CAT_ID   = 23405
ELEMENT_SET_NO = 999
REV_AT_EPOCH   = 61887
BSTAR          = .2805E-5
MEAN_MOTION_DOT = -.42E-6
MEAN_MOTION_DDOT = 0

CCSDS_OMM_VERS = 2.0
CREATION_DATE  = 
ORIGINATOR     = 

OBJECT_NAME    = ARIANE 40+ R/B
OBJECT_ID      = 1995-021B
CENTER_NAME    = EARTH
REF_FRAME      = TEME
TIME_SYSTEM    = UTC
MEAN_ELEMENT_THEORY = SGP/SGP4

EPOCH          = 2026-03-28T10:21:45.981216
MEAN_MOTION    = 14.39785618
ECCENTRICITY   = .0007927
INCLINATION    = 98.4464
RA_OF_ASC_NODE = 158.6574
ARG_OF_PERICENTER = 88.2198
MEAN_ANOMALY   = 282.3068

EPHEMERIS_TYPE = 0
CLASSIFICATION_TYPE = U
NORAD_CAT_ID   = 23561
ELEMENT_SET_NO = 999
REV_AT_EPOCH   = 62194
BSTAR          = .10951E-3
MEAN_MOTION_DOT = .3E-5
MEAN_MOTION_DDOT = 0

CCSDS_OMM_VERS = 2.0
CREATION_DATE  = 
ORIGINATOR     = 

OBJECT_NAME    = SL-16 R/B
OBJECT_ID      = 1995-058B
CENTER_NAME    = EARTH
REF_FRAME      = TEME
TIME_SYSTEM    = UTC
MEAN_ELEMENT_THEORY = SGP/SGP4

EPOCH          = 2026-03-28T12:01:35.448672
MEAN_MOTION    = 14.15499236
ECCENTRICITY   = .0010113
INCLINATION    = 71.0204
RA_OF_ASC_NODE = 140.7637
ARG_OF_PERICENTER = 90.9227
MEAN_ANOMALY   = 269.3054

EPHEMERIS_TYPE = 0
CLASSIFICATION_TYPE = U
NORAD_CAT_ID   = 23705
ELEMENT_SET_NO = 999
REV_AT_EPOCH   = 57051
BSTAR          = -.10548E-3
MEAN_MOTION_DOT = -.254E-5
MEAN_MOTION_DDOT = 0

CCSDS_OMM_VERS = 2.0
CREATION_DATE  = 
ORIGINATOR     = 

OBJECT_NAME    = SL-16 R/B
OBJECT_ID      = 1996-051B
CENTER_NAME    = EARTH
REF_FRAME      = TEME
TIME_SYSTEM    = UTC
MEAN_ELEMENT_THEORY = SGP/SGP4

EPOCH          = 2026-03-28T12:12:28.526400
MEAN_MOTION    = 14.12420956
ECCENTRICITY   = .0013543
INCLINATION    = 70.7586
RA_OF_ASC_NODE = 135.4084
ARG_OF_PERICENTER = 117.6975
MEAN_ANOMALY   = 242.5521

EPHEMERIS_TYPE = 0
CLASSIFICATION_TYPE = U
NORAD_CAT_ID   = 24298
ELEMENT_SET_NO = 999
REV_AT_EPOCH   = 52430
BSTAR          = .82297E-4
MEAN_MOTION_DOT = .103E-5
MEAN_MOTION_DDOT = 0

CCSDS_OMM_VERS = 2.0
CREATION_DATE  = 
ORIGINATOR     = 

OBJECT_NAME    = ORBVIEW 2 (SEASTAR)
OBJECT_ID      = 1997-037A
CENTER_NAME    = EARTH
REF_FRAME      = TEME
TIME_SYSTEM    = UTC
MEAN_ELEMENT_THEORY = SGP/SGP4

EPOCH          = 2026-03-28T10:42:54.410112
MEAN_MOTION    = 14.35507896
ECCENTRICITY   = .0002421
INCLINATION    = 98.8601
RA_OF_ASC_NODE = 252.2585
ARG_OF_PERICENTER = 31.3361
MEAN_ANOMALY   = 328.7967

EPHEMERIS_TYPE = 0
CLASSIFICATION_TYPE = U
NORAD_CAT_ID   = 24883
ELEMENT_SET_NO = 999
REV_AT_EPOCH   = 51116
BSTAR          = .12904E-3
MEAN_MOTION_DOT = .324E-5
MEAN_MOTION_DDOT = 0

CCSDS_OMM_VERS = 2.0
CREATION_DATE  = 
ORIGINATOR     = 

OBJECT_NAME    = SL-16 R/B
OBJECT_ID      = 1998-043G
CENTER_NAME    = EARTH
REF_FRAME      = TEME
TIME_SYSTEM    = UTC
MEAN_ELEMENT_THEORY = SGP/SGP4

EPOCH          = 2026-03-28T11:09:51.475968
MEAN_MOTION    = 14.26054031
ECCENTRICITY   = .0009222
INCLINATION    = 98.8285
RA_OF_ASC_NODE = 40.9653
ARG_OF_PERICENTER = 325.6772
MEAN_ANOMALY   = 34.3811

EPHEMERIS_TYPE = 0
CLASSIFICATION_TYPE = U
NORAD_CAT_ID   = 25400
ELEMENT_SET_NO = 999
REV_AT_EPOCH   = 44166
BSTAR          = .47141E-4
MEAN_MOTION_DOT = .67E-6
MEAN_MOTION_DDOT = 0

