COSMOS 2242             
1 22626U 93024A   26087.49056094  .00002167  00000+0  18755-3 0  9990
2 22626  82.5161 248.7279 0015072 239.5622 120.4112 14.96627425783203
SL-16 R/B               
1 22803U 93059B   26087.11033061 -.00000178  00000+0 -64469-4 0  9999
2 22803  70.9920 332.2838 0017450 189.8461 170.2324 14.17235097682146
ARIANE 40 R/B           
1 22830U 93061H   26087.41309448  .00000214  00000+0  94224-4 0  9991
2 22830  98.4882 155.9282 0009995 223.7471 136.2922 14.32870728696789
COSMOS 2278             
1 23087U 94023A   26087.48091714 -.00000228  00000+0 -94660-4 0  9997
2 23087  71.0517 135.7860 0009144 343.9869  16.0964 14.14375559647460
SL-16 R/B               
1 23088U 94023B   26087.23618926  .00000348  00000+0  20445-3 0  9991
2 23088  71.0016  31.9354 0005460 268.3333  91.7164 14.15014889648711
SL-16 R/B               
1 23343U 94074B   26087.54712199  .00000488  00000+0  72042-4 0  9998
2 23343  97.7082 117.5991 0007268 149.1399  11.4350 14.79428867690030
SL-16 R/B               
1 23405U 94077B   26087.35187975 -.00000042  00000+0  28050-5 0  9995
2 23405  70.9835 313.2294 0001969 197.2989 162.8067 14.15569236618874
ARIANE 40+ R/B          
1 23561U 95021B   26087.43178219  .00000300  00000+0  10951-3 0  9993
2 23561  98.4464 158.6574 0007927  88.2198 282.3068 14.39785618621944
SL-16 R/B               
1 23705U 95058B   26087.50110473 -.00000254  00000+0 -10548-3 0  9991
2 23705  71.0204 140.7637 0010113  90.9227 269.3054 14.15499236570517
SL-16 R/B               
1 24298U 96051B   26087.50866350  .00000103  00000+0  82297-4 0  9997
2 24298  70.7586 135.4084 0013543 117.6975 242.5521 14.12420956524306
ORBVIEW 2 (SEASTAR)     
1 24883U 97037A   26087.44646308  .00000324  00000+0  12904-3 0  9996
2 24883  98.8601 252.2585 0002421  31.3361 328.7967 14.35507896511168
SL-16 R/B               
1 25400U 98043G   26087.46517912  .00000067  00000+0  47141-4 0  9996
2 25400  98.8285  40.9653 0009222 325.6772  34.3811 14.26054031441664
